start=new Date('2022-09-17T00:00:00.000Z').valueOf();
sats=[{"CLASSIFICATION_TYPE":"U","TLE_LINE2":"2 48335  53.0543  42.4578 0001187  83.4204 276.6920 15.06394691 76631","CENTER_NAME":"EARTH","SITE":"AFETR","OBJECT_NAME":"STARLINK-2441","APOAPSIS":"548.052","MEAN_MOTION_DOT":"0.00000972","COUNTRY_CODE":"US","EPOCH":"2022-09-16T18:47:49.696512","MEAN_MOTION":"15.06394691","FILE":"3575787","REF_FRAME":"TEME","LAUNCH_DATE":"2021-04-29","GP_ID":"212747149","INCLINATION":"53.0543","EPHEMERIS_TYPE":"0","BSTAR":"0.00008413600000","MEAN_ELEMENT_THEORY":"SGP4","DECAY_DATE":null,"SEMIMAJOR_AXIS":"6925.365","OBJECT_TYPE":"PAYLOAD","ARG_OF_PERICENTER":"83.4204","ECCENTRICITY":"0.00011870","PERIAPSIS":"546.408","TIME_SYSTEM":"UTC","RA_OF_ASC_NODE":"42.4578","TLE_LINE1":"1 48335U 21036BM  22259.78321408  .00000972  00000-0  84136-4 0  9992","REV_AT_EPOCH":"7663","MEAN_MOTION_DDOT":"0.0000000000000","OBJECT_ID":"2021-036BM","NORAD_CAT_ID":"48335","PERIOD":"95.592","MEAN_ANOMALY":"276.6920","RCS_SIZE":"LARGE","ELEMENT_SET_NO":"999"},{"ELEMENT_SET_NO":"999","RCS_SIZE":"LARGE","MEAN_MOTION_DDOT":"0.0000000000000","REV_AT_EPOCH":"7615","PERIOD":"95.592","MEAN_ANOMALY":"283.3462","NORAD_CAT_ID":"48353","OBJECT_ID":"2021-038A","RA_OF_ASC_NODE":"304.2211","TIME_SYSTEM":"UTC","PERIAPSIS":"546.096","TLE_LINE1":"1 48353U 21038A   22259.39066299  .00007801  00000-0  54185-3 0  9993","MEAN_ELEMENT_THEORY":"SGP4","ARG_OF_PERICENTER":"76.7702","ECCENTRICITY":"0.00015700","DECAY_DATE":null,"SEMIMAJOR_AXIS":"6925.319","OBJECT_TYPE":"PAYLOAD","GP_ID":"212723344","REF_FRAME":"TEME","LAUNCH_DATE":"2021-05-04","BSTAR":"0.00054185000000","EPHEMERIS_TYPE":"0","INCLINATION":"53.0538","COUNTRY_CODE":"US","FILE":"3575670","MEAN_MOTION":"15.06409750","EPOCH":"2022-09-16T09:22:33.282336","APOAPSIS":"548.271","MEAN_MOTION_DOT":"0.00007801","CLASSIFICATION_TYPE":"U","SITE":"AFETR","TLE_LINE2":"2 48353  53.0538 304.2211 0001570  76.7702 283.3462 15.06409750 76158","CENTER_NAME":"EARTH","OBJECT_NAME":"STARLINK-2613"},{"ARG_OF_PERICENTER":"81.8322","ECCENTRICITY":"0.00015980","DECAY_DATE":null,"SEMIMAJOR_AXIS":"6925.352","OBJECT_TYPE":"PAYLOAD","MEAN_ELEMENT_THEORY":"SGP4","TLE_LINE1":"1 48354U 21038B   22259.85140751  .00002230  00000-0  16854-3 0  9993","TIME_SYSTEM":"UTC","RA_OF_ASC_NODE":"302.1583","PERIAPSIS":"546.110","MEAN_ANOMALY":"278.2848","PERIOD":"95.592","NORAD_CAT_ID":"48354","OBJECT_ID":"2021-038B","MEAN_MOTION_DDOT":"0.0000000000000","REV_AT_EPOCH":"7563","ELEMENT_SET_NO":"999","RCS_SIZE":"LARGE","TLE_LINE2":"2 48354  53.0520 302.1583 0001598  81.8322 278.2848 15.06399013 75637","OBJECT_NAME":"STARLINK-2674","SITE":"AFETR","CENTER_NAME":"EARTH","CLASSIFICATION_TYPE":"U","MEAN_MOTION_DOT":"0.00002230","APOAPSIS":"548.323","FILE":"3575787","MEAN_MOTION":"15.06399013","EPOCH":"2022-09-16T20:26:01.608864","COUNTRY_CODE":"US","BSTAR":"0.00016854000000","EPHEMERIS_TYPE":"0","INCLINATION":"53.0520","GP_ID":"212748153","REF_FRAME":"TEME","LAUNCH_DATE":"2021-05-04"},{"TLE_LINE1":"1 48355U 21038C   22259.84771817  .00001557  00000-0  12339-3 0  9991","TIME_SYSTEM":"UTC","RA_OF_ASC_NODE":"302.1682","PERIAPSIS":"546.078","ARG_OF_PERICENTER":"73.7051","ECCENTRICITY":"0.00016510","DECAY_DATE":null,"OBJECT_TYPE":"PAYLOAD","SEMIMAJOR_AXIS":"6925.356","MEAN_ELEMENT_THEORY":"SGP4","ELEMENT_SET_NO":"999","RCS_SIZE":"LARGE","PERIOD":"95.592","MEAN_ANOMALY":"286.4119","NORAD_CAT_ID":"48355","OBJECT_ID":"2021-038C","REV_AT_EPOCH":"7563","MEAN_MOTION_DDOT":"0.0000000000000","MEAN_MOTION_DOT":"0.00001557","APOAPSIS":"548.365","SITE":"AFETR","TLE_LINE2":"2 48355  53.0539 302.1682 0001651  73.7051 286.4119 15.06397491 75637","CENTER_NAME":"EARTH","OBJECT_NAME":"STARLINK-2635","CLASSIFICATION_TYPE":"U","BSTAR":"0.00012339000000","EPHEMERIS_TYPE":"0","INCLINATION":"53.0539","GP_ID":"212746901","REF_FRAME":"TEME","LAUNCH_DATE":"2021-05-04","FILE":"3575787","MEAN_MOTION":"15.06397491","EPOCH":"2022-09-16T20:20:42.849888","COUNTRY_CODE":"US"},{"OBJECT_NAME":"STARLINK-2637","TLE_LINE2":"2 48356  53.0538 303.9563 0001278  77.1815 282.9316 15.06394486 75579","SITE":"AFETR","CENTER_NAME":"EARTH","CLASSIFICATION_TYPE":"U","MEAN_MOTION_DOT":"0.00002217","APOAPSIS":"548.116","EPOCH":"2022-09-16T10:42:10.144800","FILE":"3575604","MEAN_MOTION":"15.06394486","COUNTRY_CODE":"US","INCLINATION":"53.0538","BSTAR":"0.00016771000000","EPHEMERIS_TYPE":"0","LAUNCH_DATE":"2021-05-04","REF_FRAME":"TEME","GP_ID":"212718838","SEMIMAJOR_AXIS":"6925.365","DECAY_DATE":null,"OBJECT_TYPE":"PAYLOAD","ARG_OF_PERICENTER":"77.1815","ECCENTRICITY":"0.00012780","MEAN_ELEMENT_THEORY":"SGP4","TLE_LINE1":"1 48356U 21038D   22259.44595075  .00002217  00000-0  16771-3 0  9996","PERIAPSIS":"546.345","TIME_SYSTEM":"UTC","RA_OF_ASC_NODE":"303.9563","OBJECT_ID":"2021-038D","PERIOD":"95.592","MEAN_ANOMALY":"282.9316","NORAD_CAT_ID":"48356","REV_AT_EPOCH":"7557","MEAN_MOTION_DDOT":"0.0000000000000","RCS_SIZE":"LARGE","ELEMENT_SET_NO":"999"},{"MEAN_MOTION":"15.06396618","FILE":"3575787","EPOCH":"2022-09-16T20:14:03.674112","COUNTRY_CODE":"US","EPHEMERIS_TYPE":"0","BSTAR":"0.00015390000000","INCLINATION":"53.0542","GP_ID":"212748402","LAUNCH_DATE":"2021-05-04","REF_FRAME":"TEME","TLE_LINE2":"2 48357  53.0542 302.2190 0001306  75.7090 284.4044 15.06396618 75635","CENTER_NAME":"EARTH","SITE":"AFETR","OBJECT_NAME":"STARLINK-2636","CLASSIFICATION_TYPE":"U","MEAN_MOTION_DOT":"0.00002011","APOAPSIS":"548.128","NORAD_CAT_ID":"48357","PERIOD":"95.592","MEAN_ANOMALY":"284.4044","OBJECT_ID":"2021-038E","MEAN_MOTION_DDOT":"0.0000000000000","REV_AT_EPOCH":"7563","ELEMENT_SET_NO":"999","RCS_SIZE":"LARGE","ARG_OF_PERICENTER":"75.7090","ECCENTRICITY":"0.00013060","SEMIMAJOR_AXIS":"6925.359","DECAY_DATE":null,"OBJECT_TYPE":"PAYLOAD","MEAN_ELEMENT_THEORY":"SGP4","TLE_LINE1":"1 48357U 21038E   22259.84309808  .00002011  00000-0  15390-3 0  9996","TIME_SYSTEM":"UTC","RA_OF_ASC_NODE":"302.2190","PERIAPSIS":"546.319"},{"GP_ID":"212748653","LAUNCH_DATE":"2021-05-04","REF_FRAME":"TEME","EPHEMERIS_TYPE":"0","BSTAR":"0.00007517700000","INCLINATION":"53.0537","COUNTRY_CODE":"US","MEAN_MOTION":"15.06394373","FILE":"3575787","EPOCH":"2022-09-16T20:04:47.555328","APOAPSIS":"548.227","MEAN_MOTION_DOT":"0.00000838","CLASSIFICATION_TYPE":"U","TLE_LINE2":"2 48358  53.0537 302.2115 0001438  68.6340 291.4802 15.06394373 75627","SITE":"AFETR","CENTER_NAME":"EARTH","OBJECT_NAME":"STARLINK-2624","ELEMENT_SET_NO":"999","RCS_SIZE":"LARGE","MEAN_MOTION_DDOT":"0.0000000000000","REV_AT_EPOCH":"7562","NORAD_CAT_ID":"48358","MEAN_ANOMALY":"291.4802","PERIOD":"95.592","OBJECT_ID":"2021-038F","TIME_SYSTEM":"UTC","RA_OF_ASC_NODE":"302.2115","PERIAPSIS":"546.235","TLE_LINE1":"1 48358U 21038F   22259.83666152  .00000838  00000-0  75177-4 0  9999","MEAN_ELEMENT_THEORY":"SGP4","ECCENTRICITY":"0.00014380","ARG_OF_PERICENTER":"68.6340","DECAY_DATE":null,"OBJECT_TYPE":"PAYLOAD","SEMIMAJOR_AXIS":"6925.366"},{"PERIOD":"95.592","MEAN_ANOMALY":"287.6344","NORAD_CAT_ID":"48359","OBJECT_ID":"2021-038G","REV_AT_EPOCH":"7557","MEAN_MOTION_DDOT":"0.0000000000000","ELEMENT_SET_NO":"999","RCS_SIZE":"LARGE","ECCENTRICITY":"0.00017000","ARG_OF_PERICENTER":"72.4831","OBJECT_TYPE":"PAYLOAD","DECAY_DATE":null,"SEMIMAJOR_AXIS":"6925.349","MEAN_ELEMENT_THEORY":"SGP4","TLE_LINE1":"1 48359U 21038G   22259.50123731  .00001505  00000-0  11993-3 0  9992","RA_OF_ASC_NODE":"303.7240","TIME_SYSTEM":"UTC","PERIAPSIS":"546.037","FILE":"3575604","MEAN_MOTION":"15.06399804","EPOCH":"2022-09-16T12:01:46.903584","COUNTRY_CODE":"US","BSTAR":"0.00011993000000","EPHEMERIS_TYPE":"0","INCLINATION":"53.0537","GP_ID":"212718094","LAUNCH_DATE":"2021-05-04","REF_FRAME":"TEME","OBJECT_NAME":"STARLINK-2628","TLE_LINE2":"2 48359  53.0537 303.7240 0001700  72.4831 287.6344 15.06399804 75579","SITE":"AFETR","CENTER_NAME":"EARTH","CLASSIFICATION_TYPE":"U","MEAN_MOTION_DOT":"0.00001505","APOAPSIS":"548.391"},{"ELEMENT_SET_NO":"999","RCS_SIZE":"LARGE","MEAN_ANOMALY":"283.5001","PERIOD":"95.592","NORAD_CAT_ID":"48360","OBJECT_ID":"2021-038H","REV_AT_EPOCH":"7562","MEAN_MOTION_DDOT":"0.0000000000000","TLE_LINE1":"1 48360U 21038H   22259.82929104  .00001322  00000-0  10765-3 0  9990","RA_OF_ASC_NODE":"302.2563","TIME_SYSTEM":"UTC","PERIAPSIS":"546.292","ARG_OF_PERICENTER":"76.6139","ECCENTRICITY":"0.00013500","OBJECT_TYPE":"PAYLOAD","DECAY_DATE":null,"SEMIMAJOR_AXIS":"6925.362","MEAN_ELEMENT_THEORY":"SGP4","BSTAR":"0.00010765000000","EPHEMERIS_TYPE":"0","INCLINATION":"53.0548","GP_ID":"212747651","LAUNCH_DATE":"2021-05-04","REF_FRAME":"TEME","FILE":"3575787","MEAN_MOTION":"15.06395643","EPOCH":"2022-09-16T19:54:10.745856","COUNTRY_CODE":"US","MEAN_MOTION_DOT":"0.00001322","APOAPSIS":"548.162","SITE":"AFETR","TLE_LINE2":"2 48360  53.0548 302.2563 0001350  76.6139 283.5001 15.06395643 75621","CENTER_NAME":"EARTH","OBJECT_NAME":"STARLINK-2622","CLASSIFICATION_TYPE":"U"},{"MEAN_MOTION_DDOT":"0.0000000000000","REV_AT_EPOCH":"7556","OBJECT_ID":"2021-038J","NORAD_CAT_ID":"48361","MEAN_ANOMALY":"268.3287","PERIOD":"95.593","RCS_SIZE":"LARGE","ELEMENT_SET_NO":"999","MEAN_ELEMENT_THEORY":"SGP4","OBJECT_TYPE":"PAYLOAD","DECAY_DATE":null,"SEMIMAJOR_AXIS":"6925.375","ARG_OF_PERICENTER":"91.7852","ECCENTRICITY":"0.00013050","PERIAPSIS":"546.336","RA_OF_ASC_NODE":"304.0520","TIME_SYSTEM":"UTC","TLE_LINE1":"1 48361U 21038J   22259.42752261 -.00000779  00000-0 -33446-4 0  9994","COUNTRY_CODE":"US","EPOCH":"2022-09-16T10:15:37.953504","MEAN_MOTION":"15.06391463","FILE":"3575604","LAUNCH_DATE":"2021-05-04","REF_FRAME":"TEME","GP_ID":"212717100","INCLINATION":"53.0554","EPHEMERIS_TYPE":"0","BSTAR":"-0.00003344600000","CLASSIFICATION_TYPE":"U","TLE_LINE2":"2 48361  53.0554 304.0520 0001305  91.7852 268.3287 15.06391463 75568","SITE":"AFETR","CENTER_NAME":"EARTH","OBJECT_NAME":"STARLINK-2591","APOAPSIS":"548.143","MEAN_MOTION_DOT":"-0.00000779"}];
